{
  "type": "FeatureCollection",
  "features": [
    {
      "type": "Feature",
      "properties": {
        "name": "Hiware Bazar",
        "id": "HB"
      },
      "geometry": {
        "type": "Polygon",
        "coordinates": [
          [
            [74.01674, 19.07149],
            [74.01969, 19.07064],
            [74.02181, 19.07207],
            [74.02240, 19.07356],
            [74.02034, 19.07483],
            [74.01769, 19.07480],
            [74.01508, 19.07427],
            [74.01407, 19.07285],
            [74.01522, 19.07167],
            [74.01674, 19.07149]
          ]
        ]
      }
    },
    {
      "type": "Feature",
      "properties": {
        "name": "Ralegan Siddhi",
        "id": "RS"
      },
      "geometry": {
        "type": "Polygon",
        "coordinates": [
          [
            [74.42604, 19.16433],
            [74.42704, 19.16213],
            [74.42981, 19.16194],
            [74.43310, 19.16246],
            [74.43396, 19.16427],
            [74.43274, 19.16620],
            [74.42971, 19.16620],
            [74.42639, 19.16620],
            [74.42604, 19.16433]
          ]
        ]
      }
    }
  ]
}
